NORAD_CAT_ID,OBJECT_NAME,OBJECT_TYPE,EPOCH,MEAN_MOTION,ECCENTRICITY,INCLINATION,RA_OF_ASC_NODE,ARG_OF_PERICENTER,MEAN_ANOMALY,BSTAR,MEAN_MOTION_DOT,MEAN_MOTION_DDOT,TLE_LINE0,TLE_LINE1,TLE_LINE2,SEMIMAJOR_AXIS,PERIOD,APOGEE,PERIGEE,DECAYED
51129.0,STARLINK-3396,PAYLOAD,2023-07-21 07:02:30,15.08853436,0.0001236,53.2172,299.4883,97.596,262.5172,0.00052208,8.034e-05,0.0,0 STARLINK-3396,1 51129U 22005AB  23202.29340504  .00008034  00000-0  52208-3 0  9998,2 51129  53.2172 299.4883 0001236  97.5960 262.5172 15.08853436 84573,6917.839,95.437,540.559,538.849,0.0
51129.0,STARLINK-3396,PAYLOAD,2023-07-24 06:34:51,15.08840261,8.61e-05,53.2154,286.1066,94.3462,265.7628,0.00013621,1.881e-05,0.0,0 STARLINK-3396,1 51129U 22005AB  23205.27420682  .00001881  00000-0  13621-3 0  9994,2 51129  53.2154 286.1066 0000861  94.3462 265.7628 15.08840261 83891,6917.88,95.438,540.34,539.149,0.0
51129.0,STARLINK-3396,PAYLOAD,2023-07-25 11:11:48,15.08838392,0.0001356,53.2186,280.7554,111.4229,248.6908,9.3503e-05,1.2e-05,0.0,0 STARLINK-3396,1 51129U 22005AB  23206.46652916  .00001200  00000-0  93503-4 0  9996,2 51129  53.2186 280.7554 0001356 111.4229 248.6908 15.08838392 84074,6917.885,95.438,540.688,538.812,0.0
51129.0,STARLINK-3396,PAYLOAD,2023-07-26 07:51:48,15.08842365,0.0001062,53.216,276.8876,88.6775,271.4339,8.7829e-06,-1.48e-06,0.0,0 STARLINK-3396,1 51129U 22005AB  23207.32764875 -.00000148  00000-0  87829-5 0  9996,2 51129  53.2160 276.8876 0001062  88.6775 271.4339 15.08842365 84206,6917.873,95.437,540.473,539.003,0.0
51129.0,STARLINK-3396,PAYLOAD,2023-07-26 14:13:21,15.08849188,0.0001129,53.2169,275.6994,88.0276,272.0846,0.00019979,2.894e-05,0.0,0 STARLINK-3396,1 51129U 22005AB  23207.59260536  .00002894  00000-0  19979-3 0  9998,2 51129  53.2169 275.6994 0001129  88.0276 272.0846 15.08849188 85376,6917.852,95.437,540.498,538.936,0.0
51129.0,STARLINK-3396,PAYLOAD,2023-07-26 22:10:17,15.08837167,7.99e-05,53.216,274.2111,82.8774,277.2309,9.8548e-05,1.281e-05,0.0,0 STARLINK-3396,1 51129U 22005AB  23207.92381123  .00001281  00000-0  98548-4 0  9990,2 51129  53.2160 274.2111 0000799  82.8774 277.2309 15.08837167 85421,6917.889,95.438,540.307,539.201,0.0
51129.0,STARLINK-3396,PAYLOAD,2023-07-27 04:31:50,15.0883417,0.0001052,53.2161,273.0239,76.0185,284.0924,2.6069e-05,1.27e-06,0.0,0 STARLINK-3396,1 51129U 22005AB  23208.18877520  .00000127  00000-0  26069-4 0  9997,2 51129  53.2161 273.0239 0001052  76.0185 284.0924 15.08834170 84333,6917.898,95.438,540.491,539.035,0.0
51129.0,STARLINK-3396,PAYLOAD,2023-07-28 13:54:55,15.08847599,0.0001084,53.216,266.7784,82.2741,277.8375,0.00018135,2.6e-05,0.0,0 STARLINK-3396,1 51129U 22005AB  23209.57981103  .00002600  00000-0  18135-3 0  9996,2 51129  53.2160 266.7784 0001084  82.2741 277.8375 15.08847599 84540,6917.857,95.437,540.472,538.972,0.0
51129.0,STARLINK-3396,PAYLOAD,2023-07-29 02:38:00,15.08842626,0.0001238,53.214,264.397,95.6441,264.4693,0.00019269,2.78e-05,0.0,0 STARLINK-3396,1 51129U 22005AB  23210.10973316  .00002780  00000-0  19269-3 0  9992,2 51129  53.2140 264.3970 0001238  95.6441 264.4693 15.08842626 85750,6917.872,95.437,540.594,538.881,0.0
51129.0,STARLINK-3396,PAYLOAD,2023-07-29 10:34:56,15.08835806,9.62e-05,53.2161,262.9124,82.9038,277.2063,4.9886e-05,5.06e-06,0.0,0 STARLINK-3396,1 51129U 22005AB  23210.44093682  .00000506  00000-0  49886-4 0  9991,2 51129  53.2161 262.9124 0000962  82.9038 277.2063 15.08835806 85803,6917.893,95.438,540.424,539.093,0.0
51129.0,STARLINK-3396,PAYLOAD,2023-07-30 08:50:20,15.08845301,9.01e-05,53.216,258.748,71.2861,288.8229,3.9546e-05,3.42e-06,0.0,0 STARLINK-3396,1 51129U 22005AB  23211.36829429  .00000342  00000-0  39546-4 0  9999,2 51129  53.2160 258.7480 0000901  71.2861 288.8229 15.08845301 85946,6917.864,95.437,540.352,539.106,0.0
51129.0,STARLINK-3396,PAYLOAD,2023-07-31 10:16:30,15.08840655,9.96e-05,53.2166,253.9904,76.9817,283.1286,0.0001726,2.46e-05,0.0,0 STARLINK-3396,1 51129U 22005AB  23212.42813291  .00002460  00000-0  17260-3 0  9998,2 51129  53.2166 253.9904 0000996  76.9817 283.1286 15.08840655 86104,6917.878,95.438,540.432,539.054,0.0
51129.0,STARLINK-3396,PAYLOAD,2023-08-01 11:42:40,15.08843856,0.0001002,53.2163,249.2328,79.994,280.1165,5.6589e-05,6.13e-06,0.0,0 STARLINK-3396,1 51129U 22005AB  23213.48797359  .00000613  00000-0  56589-4 0  9997,2 51129  53.2163 249.2328 0001002  79.9940 280.1165 15.08843856 86264,6917.869,95.437,540.427,539.04,0.0
51129.0,STARLINK-3396,PAYLOAD,2023-08-03 01:51:56,15.08838828,0.0001016,53.2157,242.0961,81.6804,278.4303,5.9618e-05,6.61e-06,0.0,0 STARLINK-3396,1 51129U 22005AB  23215.07773485  .00000661  00000-0  59618-4 0  9997,2 51129  53.2157 242.0961 0001016  81.6804 278.4303 15.08838828 86509,6917.884,95.438,540.452,539.046,0.0
51129.0,STARLINK-3396,PAYLOAD,2023-08-04 08:04:16,15.08838792,0.0001052,53.2158,236.4455,85.6687,274.4426,4.0489e-05,3.57e-06,0.0,0 STARLINK-3396,1 51129U 22005AB  23216.33629659  .00000357  00000-0  40489-4 0  9998,2 51129  53.2158 236.4455 0001052  85.6687 274.4426 15.08838792 86690,6917.884,95.438,540.477,539.021,0.0
51129.0,STARLINK-3396,PAYLOAD,2023-08-05 01:33:29,15.08849909,9.41e-05,53.2153,233.1738,88.6745,271.4355,0.00014534,2.027e-05,0.0,0 STARLINK-3396,1 51129U 22005AB  23217.06492426  .00002027  00000-0  14534-3 0  9996,2 51129  53.2153 233.1738 0000941  88.6745 271.4355 15.08849909 86800,6917.85,95.437,540.366,539.064,0.0
51129.0,STARLINK-3396,PAYLOAD,2023-08-06 04:35:03,15.08838835,9.88e-05,53.2162,228.1186,101.9777,258.1326,2.2914e-05,7.7e-07,0.0,0 STARLINK-3396,1 51129U 22005AB  23218.19101442  .00000077  00000-0  22914-4 0  9991,2 51129  53.2162 228.1186 0000988 101.9777 258.1326 15.08838835 86970,6917.884,95.438,540.432,539.065,0.0
51129.0,STARLINK-3396,PAYLOAD,2023-08-07 07:36:37,15.08833803,0.0001,53.2165,223.0653,95.562,264.5486,-0.00010103,-1.895e-05,0.0,0 STARLINK-3396,1 51129U 22005AB  23219.31710376 -.00001895  00000-0 -10103-3 0  9995,2 51129  53.2165 223.0653 0001000  95.5620 264.5486 15.08833803 87145,6917.899,95.438,540.456,539.073,0.0
51129.0,STARLINK-3396,PAYLOAD,2023-08-08 16:59:43,15.08836186,0.0001022,53.2164,216.82,89.5596,270.5513,0.00016431,2.328e-05,0.0,0 STARLINK-3396,1 51129U 22005AB  23220.70814546  .00002328  00000-0  16431-3 0  9994,2 51129  53.2164 216.8200 0001022  89.5596 270.5513 15.08836186 87359,6917.892,95.438,540.464,539.05,0.0
51129.0,STARLINK-3396,PAYLOAD,2023-08-09 23:12:03,15.08842771,0.0001044,53.2154,211.1706,85.9991,274.112,0.00012401,1.687e-05,0.0,0 STARLINK-3396,1 51129U 22005AB  23221.96670534  .00001687  00000-0  12401-3 0  9990,2 51129  53.2154 211.1706 0001044  85.9991 274.1120 15.08842771 87542,6917.872,95.437,540.459,539.015,0.0
51129.0,STARLINK-3396,PAYLOAD,2023-08-11 08:35:08,15.08846816,0.0001132,53.2149,204.9246,91.9368,268.1753,3.5623e-05,2.79e-06,0.0,0 STARLINK-3396,1 51129U 22005AB  23223.35774093  .00000279  00000-0  35623-4 0  9998,2 51129  53.2149 204.9246 0001132  91.9368 268.1753 15.08846816 87750,6917.86,95.437,540.508,538.941,0.0
51129.0,STARLINK-3396,PAYLOAD,2023-08-12 02:04:23,15.08840591,0.000122,53.2138,201.6525,94.9372,265.1759,2.8236e-05,1.62e-06,0.0,0 STARLINK-3396,1 51129U 22005AB  23224.08638446  .00000162  00000-0  28236-4 0  9993,2 51129  53.2138 201.6525 0001220  94.9372 265.1759 15.08840591 87867,6917.879,95.438,540.588,538.9,0.0
51129.0,STARLINK-3396,PAYLOAD,2023-08-12 08:25:56,15.08827219,0.0001294,53.2159,200.463,102.5627,257.551,0.00026351,3.907e-05,0.0,0 STARLINK-3396,1 51129U 22005AB  23224.35134837  .00003907  00000-0  26351-3 0  9993,2 51129  53.2159 200.4630 0001294 102.5627 257.5510 15.08827219 87901,6917.919,95.438,540.68,538.889,0.0
51129.0,STARLINK-3396,PAYLOAD,2023-08-13 09:52:06,15.08840586,0.0001258,53.2158,195.7068,93.3301,266.7835,6.1825e-05,6.96e-06,0.0,0 STARLINK-3396,1 51129U 22005AB  23225.41118581  .00000696  00000-0  61825-4 0  9997,2 51129  53.2158 195.7068 0001258  93.3301 266.7835 15.08840586 88069,6917.879,95.438,540.614,538.873,0.0
51129.0,STARLINK-3396,PAYLOAD,2023-08-14 01:45:58,15.08834688,0.0001212,53.2166,192.7334,93.5334,266.5796,2.8874e-05,1.72e-06,0.0,0 STARLINK-3396,1 51129U 22005AB  23226.07359273  .00000172  00000-0  28874-4 0  9991,2 51129  53.2166 192.7334 0001212  93.5334 266.5796 15.08834688 88160,6917.897,95.438,540.6,538.923,0.0
51129.0,STARLINK-3396,PAYLOAD,2023-08-14 09:42:53,15.08840686,0.0001183,53.2167,191.2463,88.668,271.4448,7.9793e-05,9.82e-06,0.0,0 STARLINK-3396,1 51129U 22005AB  23226.40478851  .00000982  00000-0  79793-4 0  9997,2 51129  53.2167 191.2463 0001183  88.6680 271.4448 15.08840686 88214,6917.878,95.438,540.562,538.925,0.0
51129.0,STARLINK-3396,PAYLOAD,2023-08-15 01:36:45,15.08837491,0.0001257,53.216,188.2724,93.6937,266.4199,5.7085e-05,6.21e-06,0.0,0 STARLINK-3396,1 51129U 22005AB  23227.06719315  .00000621  00000-0  57085-4 0  9993,2 51129  53.2160 188.2724 0001257  93.6937 266.4199 15.08837491 88314,6917.888,95.438,540.623,538.883,0.0
51129.0,STARLINK-3396,PAYLOAD,2023-08-15 07:58:17,15.08844004,0.0001388,53.2157,187.083,96.8994,263.2156,9.1399e-05,1.167e-05,0.0,0 STARLINK-3396,1 51129U 22005AB  23227.33214898  .00001167  00000-0  91399-4 0  9991,2 51129  53.2157 187.0830 0001388  96.8994 263.2156 15.08844004 88358,6917.868,95.437,540.693,538.773,0.0
51129.0,STARLINK-3396,PAYLOAD,2023-08-17 06:04:28,15.08846893,0.0001332,53.2175,178.4579,73.7738,286.3401,0.0001218,1.651e-05,0.0,0 STARLINK-3396,1 51129U 22005AB  23229.25310547  .00001651  00000-0  12180-3 0  9990,2 51129  53.2175 178.4579 0001332  73.7738 286.3401 15.08846893 88640,6917.859,95.437,540.646,538.803,0.0
51129.0,STARLINK-3396,PAYLOAD,2023-08-18 02:44:29,15.08844767,0.000138,53.217,174.594,98.3064,261.8085,-2.3426e-06,-3.25e-06,0.0,0 STARLINK-3396,1 51129U 22005AB  23230.11422925 -.00000325  00000-0 -23426-5 0  9997,2 51129  53.2170 174.5940 0001380  98.3064 261.8085 15.08844767 88770,6917.866,95.437,540.685,538.776,0.0
